[{"OBJECT_NAME":"ION SCV-015","OBJECT_ID":"2023-185H","EPOCH":"2026-03-09T22:36:51.209568","MEAN_MOTION":15.3163624,"ECCENTRICITY":0.00109059,"INCLINATION":97.5772,"RA_OF_ASC_NODE":155.3582,"ARG_OF_PERICENTER":92.3805,"MEAN_ANOMALY":267.8685,"EPHEMERIS_TYPE":0,"CLASSIFICATION_TYPE":"U","NORAD_CAT_ID":58469,"ELEMENT_SET_NO":999,"REV_AT_EPOCH":12588,"BSTAR":0.00030895808,"MEAN_MOTION_DOT":9.376e-5,"MEAN_MOTION_DDOT":0},{"OBJECT_NAME":"STARLINK-31361","OBJECT_ID":"2024-031K","EPOCH":"2026-03-09T21:14:45.682080","MEAN_MOTION":15.30184939,"ECCENTRICITY":0.00011288,"INCLINATION":53.1602,"RA_OF_ASC_NODE":295.7495,"ARG_OF_PERICENTER":64.2817,"MEAN_ANOMALY":295.83,"EPHEMERIS_TYPE":0,"CLASSIFICATION_TYPE":"U","NORAD_CAT_ID":58974,"ELEMENT_SET_NO":999,"REV_AT_EPOCH":11656,"BSTAR":2.110207e-5,"MEAN_MOTION_DOT":2.66e-6,"MEAN_MOTION_DDOT":0}]
